{"type": "FeatureCollection", "features": [ {"type": "Feature", "properties": {"norad_id": 44622, "name": "GAOFEN-10R", "group": "resource", "lat": 62.46869416527836, "lon": -88.44074547698641, "alt_km": 608.8146225140372, "timestamp": "2025-12-05T18:53:12.954559+00:00", "meta": {"OBJECT_NAME": "GAOFEN-10R", "OBJECT_ID": "2019-066A", "EPOCH": "2025-12-05T07:15:52.016832", "MEAN_MOTION": 14.82751398, "ECCENTRICITY": 0.00082175, "INCLINATION": 98.0269, "RA_OF_ASC_NODE": 286.7802, "ARG_OF_PERICENTER": 62.298, "MEAN_ANOMALY": 297.9066, "EPHEMERIS_TYPE": 0, "CLASSIFICATION_TYPE": "U", "NORAD_CAT_ID": 44622, "ELEMENT_SET_NO": 999, "REV_AT_EPOCH": 33364, "BSTAR": 0.00042449056, "MEAN_MOTION_DOT": 3.377e-05, "MEAN_MOTION_DDOT": 0}, "tle": {"line1": "1 44622U 19066A   25339.30268538  .00003377  00000+0  42449-3 0  9992", "line2": "2 44622  98.0269 286.7802 0008217  62.2980 297.9066 14.82751398333648"}}, "geometry": {"type": "Point", "coordinates": [-88.44074547698641, 62.46869416527836]}}, {"type": "Feature", "properties": {"norad_id": 44804, "name": "CARTOSAT-3", "group": "resource", "lat": 33.97667482274786, "lon": 34.3926241897008, "alt_km": 503.39016786743014, "timestamp": "2025-12-05T18:53:12.954569+00:00", "meta": {"OBJECT_NAME": "CARTOSAT-3", "OBJECT_ID": "2019-081A", "EPOCH": "2025-12-05T06:05:26.530656", "MEAN_MOTION": 15.19268826, "ECCENTRICITY": 0.00138378, "INCLINATION": 97.4597, "RA_OF_ASC_NODE": 38.932, "ARG_OF_PERICENTER": 110.8355, "MEAN_ANOMALY": 249.4363, "EPHEMERIS_TYPE": 0, "CLASSIFICATION_TYPE": "U", "NORAD_CAT_ID": 44804, "ELEMENT_SET_NO": 999, "REV_AT_EPOCH": 33402, "BSTAR": 0.00032410564, "MEAN_MOTION_DOT": 6.784e-05, "MEAN_MOTION_DDOT": 0}, "tle": {"line1": "1 44804U 19081A   25339.25377929  .00006784  00000+0  32411-3 0  9993", "line2": "2 44804  97.4597  38.9320 0013837 110.8355 249.4363 15.19268826334024"}}, "geometry": {"type": "Point", "coordinates": [34.3926241897008, 33.97667482274786]}}, {"type": "Feature", "properties": {"norad_id": 44819, "name": "GAOFEN-12 01", "group": "resource", "lat": 23.496104158075738, "lon": -17.17151586503077, "alt_km": 626.9814542012355, "timestamp": "2025-12-05T18:53:12.954579+00:00", "meta": {"OBJECT_NAME": "GAOFEN-12 01", "OBJECT_ID": "2019-082A", "EPOCH": "2025-12-05T07:25:36.281280", "MEAN_MOTION": 14.80643838, "ECCENTRICITY": 0.00012042, "INCLINATION": 97.8128, "RA_OF_ASC_NODE": 345.7855, "ARG_OF_PERICENTER": 285.2576, "MEAN_ANOMALY": 74.8504, "EPHEMERIS_TYPE": 0, "CLASSIFICATION_TYPE": "U", "NORAD_CAT_ID": 44819, "ELEMENT_SET_NO": 999, "REV_AT_EPOCH": 32540, "BSTAR": 0.00013242966, "MEAN_MOTION_DOT": 9.66e-06, "MEAN_MOTION_DDOT": 0}, "tle": {"line1": "1 44819U 19082A   25339.30944770  .00000966  00000+0  13243-3 0  9998", "line2": "2 44819  97.8128 345.7855 0001204 285.2576  74.8504 14.80643838325409"}}, "geometry": {"type": "Point", "coordinates": [-17.17151586503077, 23.496104158075738]}}, {"type": "Feature", "properties": {"norad_id": 44873, "name": "CSG-1", "group": "resource", "lat": 79.40105138828943, "lon": 28.96280865397941, "alt_km": 614.1864170603712, "timestamp": "2025-12-05T18:53:12.954589+00:00", "meta": {"OBJECT_NAME": "CSG-1", "OBJECT_ID": "2019-092A", "EPOCH": "2025-12-05T07:06:31.570272", "MEAN_MOTION": 14.8214793, "ECCENTRICITY": 0.00014592, "INCLINATION": 97.8805, "RA_OF_ASC_NODE": 160.7324, "ARG_OF_PERICENTER": 86.509, "MEAN_ANOMALY": 273.629, "EPHEMERIS_TYPE": 0, "CLASSIFICATION_TYPE": "U", "NORAD_CAT_ID": 44873, "ELEMENT_SET_NO": 999, "REV_AT_EPOCH": 32275, "BSTAR": 0.00015568295, "MEAN_MOTION_DOT": 1.187e-05, "MEAN_MOTION_DDOT": 0}, "tle": {"line1": "1 44873U 19092A   25339.29619873  .00001187  00000+0  15568-3 0  9998", "line2": "2 44873  97.8805 160.7324 0001459  86.5090 273.6290 14.82147930322752"}}, "geometry": {"type": "Point", "coordinates": [28.96280865397941, 79.40105138828943]}}, {"type": "Feature", "properties": {"norad_id": 46277, "name": "NEMO-HD", "group": "resource", "lat": -64.19616192666741, "lon": -156.23093049425444, "alt_km": 454.5688646505223, "timestamp": "2025-12-05T18:53:12.954599+00:00", "meta": {"OBJECT_NAME": "NEMO-HD", "OBJECT_ID": "2020-061F", "EPOCH": "2025-12-05T06:54:37.550304", "MEAN_MOTION": 15.40098263, "ECCENTRICITY": 0.00022717, "INCLINATION": 97.2224, "RA_OF_ASC_NODE": 38.4823, "ARG_OF_PERICENTER": 65.4989, "MEAN_ANOMALY": 294.6494, "EPHEMERIS_TYPE": 0, "CLASSIFICATION_TYPE": "U", "NORAD_CAT_ID": 46277, "ELEMENT_SET_NO": 999, "REV_AT_EPOCH": 29209, "BSTAR": 0.00043433542, "MEAN_MOTION_DOT": 0.00017322, "MEAN_MOTION_DDOT": 0}, "tle": {"line1": "1 46277U 20061F   25339.28793461  .00017322  00000+0  43434-3 0  9992", "line2": "2 46277  97.2224  38.4823 0002271  65.4989 294.6494 15.40098263292093"}}, "geometry": {"type": "Point", "coordinates": [-156.23093049425444, -64.19616192666741]}}, {"type": "Feature", "properties": {"norad_id": 46984, "name": "SENTINEL-6A", "group": "resource", "lat": 64.3357780029302, "lon": -115.52009268859481, "alt_km": 1336.4906125750276, "timestamp": "2025-12-05T18:53:12.954609+00:00", "meta": {"OBJECT_NAME": "SENTINEL-6A", "OBJECT_ID": "2020-086A", "EPOCH": "2025-12-04T19:58:54.613920", "MEAN_MOTION": 12.80930253, "ECCENTRICITY": 0.00077324, "INCLINATION": 66.0391, "RA_OF_ASC_NODE": 178.7316, "ARG_OF_PERICENTER": 269.1568, "MEAN_ANOMALY": 90.8561, "EPHEMERIS_TYPE": 0, "CLASSIFICATION_TYPE": "U", "NORAD_CAT_ID": 46984, "ELEMENT_SET_NO": 999, "REV_AT_EPOCH": 23543, "BSTAR": 0.00017332251, "MEAN_MOTION_DOT": -2.1e-07, "MEAN_MOTION_DDOT": 0}, "tle": {"line1": "1 46984U 20086A   25338.83257655 -.00000021  00000+0  17332-3 0  9991", "line2": "2 46984  66.0391 178.7316 0007732 269.1568  90.8561 12.80930253235436"}}, "geometry": {"type": "Point", "coordinates": [-115.52009268859481, 64.3357780029302]}}, {"type": "Feature", "properties": {"norad_id": 48079, "name": "GAOFEN-12 02", "group": "resource", "lat": 34.06095395549267, "lon": -31.61824227452027, "alt_km": 624.6674337051645, "timestamp": "2025-12-05T18:53:12.954619+00:00", "meta": {"OBJECT_NAME": "GAOFEN-12 02", "OBJECT_ID": "2021-026A", "EPOCH": "2025-12-05T07:22:43.290336", "MEAN_MOTION": 14.80661235, "ECCENTRICITY": 0.0003333, "INCLINATION": 97.9849, "RA_OF_ASC_NODE": 333.3499, "ARG_OF_PERICENTER": 115.93, "MEAN_ANOMALY": 244.2255, "EPHEMERIS_TYPE": 0, "CLASSIFICATION_TYPE": "U", "NORAD_CAT_ID": 48079, "ELEMENT_SET_NO": 999, "REV_AT_EPOCH": 25307, "BSTAR": 0.00013781848, "MEAN_MOTION_DOT": 1.006e-05, "MEAN_MOTION_DDOT": 0}, "tle": {"line1": "1 48079U 21026A   25339.30744549  .00001006  00000+0  13782-3 0  9997", "line2": "2 48079  97.9849 333.3499 0003333 115.9300 244.2255 14.80661235253078"}}, "geometry": {"type": "Point", "coordinates": [-31.61824227452027, 34.06095395549267]}}, {"type": "Feature", "properties": {"norad_id": 48268, "name": "PLEIADES NEO 3", "group": "resource", "lat": 74.36656384726729, "lon": 22.600024806837403, "alt_km": 616.129793048869, "timestamp": "2025-12-05T18:53:12.954629+00:00", "meta": {"OBJECT_NAME": "PLEIADES NEO 3", "OBJECT_ID": "2021-034A", "EPOCH": "2025-12-05T07:11:51.608832", "MEAN_MOTION": 14.81670391, "ECCENTRICITY": 0.00012453, "INCLINATION": 97.8948, "RA_OF_ASC_NODE": 51.8474, "ARG_OF_PERICENTER": 95.0794, "MEAN_ANOMALY": 265.0561, "EPHEMERIS_TYPE": 0, "CLASSIFICATION_TYPE": "U", "NORAD_CAT_ID": 48268, "ELEMENT_SET_NO": 999, "REV_AT_EPOCH": 24894, "BSTAR": -1.624557e-06, "MEAN_MOTION_DOT": -6.5e-07, "MEAN_MOTION_DDOT": 0}, "tle": {"line1": "1 48268U 21034A   25339.29990288 -.00000065  00000+0 -16246-5 0  9993", "line2": "2 48268  97.8948  51.8474 0001245  95.0794 265.0561 14.81670391248942"}}, "geometry": {"type": "Point", "coordinates": [22.600024806837403, 74.36656384726729]}}, {"type": "Feature", "properties": {"norad_id": 49070, "name": "PLEIADES NEO 4", "group": "resource", "lat": -74.48271770288498, "lon": -157.66140050199562, "alt_km": 632.2580510409498, "timestamp": "2025-12-05T18:53:12.954639+00:00", "meta": {"OBJECT_NAME": "PLEIADES NEO 4", "OBJECT_ID": "2021-073E", "EPOCH": "2025-12-05T08:00:27.982080", "MEAN_MOTION": 14.81673096, "ECCENTRICITY": 0.00013472, "INCLINATION": 97.8947, "RA_OF_ASC_NODE": 51.8766, "ARG_OF_PERICENTER": 97.5499, "MEAN_ANOMALY": 262.5867, "EPHEMERIS_TYPE": 0, "CLASSIFICATION_TYPE": "U", "NORAD_CAT_ID": 49070, "ELEMENT_SET_NO": 999, "REV_AT_EPOCH": 23266, "BSTAR": 2.857739e-06, "MEAN_MOTION_DOT": -3e-07, "MEAN_MOTION_DDOT": 0}, "tle": {"line1": "1 49070U 21073E   25339.33365720 -.00000030  00000+0  28577-5 0  9991", "line2": "2 49070  97.8947  51.8766 0001347  97.5499 262.5867 14.81673096232667"}}, "geometry": {"type": "Point", "coordinates": [-157.66140050199562, -74.48271770288498]}}, {"type": "Feature", "properties": {"norad_id": 49260, "name": "LANDSAT 9", "group": "resource", "lat": 12.870718908179994, "lon": -130.11114917578828, "alt_km": 703.4601264153325, "timestamp": "2025-12-05T18:53:12.954649+00:00", "meta": {"OBJECT_NAME": "LANDSAT 9", "OBJECT_ID": "2021-088A", "EPOCH": "2025-12-05T04:56:20.906592", "MEAN_MOTION": 14.57118388, "ECCENTRICITY": 0.00010769, "INCLINATION": 98.2102, "RA_OF_ASC_NODE": 47.4256, "ARG_OF_PERICENTER": 93.1518, "MEAN_ANOMALY": 266.9804, "EPHEMERIS_TYPE": 0, "CLASSIFICATION_TYPE": "U", "NORAD_CAT_ID": 49260, "ELEMENT_SET_NO": 999, "REV_AT_EPOCH": 22275, "BSTAR": 0.00020777937, "MEAN_MOTION_DOT": 8.91e-06, "MEAN_MOTION_DDOT": 0}, "tle": {"line1": "1 49260U 21088A   25339.20579753  .00000891  00000+0  20778-3 0  9994", "line2": "2 49260  98.2102  47.4256 0001076  93.1518 266.9804 14.57118388222753"}}, "geometry": {"type": "Point", "coordinates": [-130.11114917578828, 12.870718908179994]}}]}